[{"OBJECT_NAME":"STARLINK-5590","OBJECT_ID":"2023-013AS","EPOCH":"2026-03-08T02:35:28.705632","MEAN_MOTION":15.02537453,"ECCENTRICITY":0.0001034,"INCLINATION":43.0046,"RA_OF_ASC_NODE":321.7296,"ARG_OF_PERICENTER":283.4994,"MEAN_ANOMALY":76.5734,"EPHEMERIS_TYPE":0,"CLASSIFICATION_TYPE":"U","NORAD_CAT_ID":55371,"ELEMENT_SET_NO":999,"REV_AT_EPOCH":17224,"BSTAR":1.980854e-5,"MEAN_MOTION_DOT":6.4e-7,"MEAN_MOTION_DDOT":0},{"OBJECT_NAME":"CZ-6A DEB","OBJECT_ID":"2024-140LD","EPOCH":"2026-03-09T20:28:55.674624","MEAN_MOTION":14.66900982,"ECCENTRICITY":0.01590307,"INCLINATION":88.6669,"RA_OF_ASC_NODE":257.8237,"ARG_OF_PERICENTER":143.6628,"MEAN_ANOMALY":217.5514,"EPHEMERIS_TYPE":0,"CLASSIFICATION_TYPE":"U","NORAD_CAT_ID":60898,"ELEMENT_SET_NO":999,"REV_AT_EPOCH":8295,"BSTAR":0.0020754891,"MEAN_MOTION_DOT":0.00014066,"MEAN_MOTION_DDOT":0}]
